0 OKEAN 3
1 21397U 91039A   13282.11678574  .00001019  00000-0  10499-3 0   773
2 21397 082.5238 335.6186 0020058 057.5241 302.7913 14.89140538209013
0 OKEAN 3
1 21397U 91039A   13283.25909218  .00001012  00000-0  10421-3 0   780
2 21397 082.5237 334.5395 0019988 053.9133 306.3933 14.89143606209181
0 OKEAN 3
1 21397U 91039A   13284.26700753  .00001060  00000-0  10935-3 0   799
2 21397 082.5235 333.5873 0019913 050.7055 309.5925 14.89145292209331
0 OKEAN 3
1 21397U 91039A   13285.47650339  .00000912  00000-0  93694-4 0   808
2 21397 082.5232 332.4448 0019813 046.9045 313.3826 14.89147494209518
0 OKEAN 3
1 21397U 91039A   13286.68599640  .00001191  00000-0  12313-3 0   818
2 21397 082.5228 331.3021 0019725 043.0533 317.2223 14.89148455209691
0 OKEAN 3
1 21397U 91039A   13287.76110120  .00001345  00000-0  13944-3 0   823
2 21397 082.5226 330.2864 0019638 039.5188 320.7458 14.89152468209857
0 OKEAN 3
1 21397U 91039A   13288.76900876  .00001443  00000-0  14978-3 0   837
2 21397 082.5224 329.3340 0019547 036.2406 324.0132 14.89156204210006
0 OKEAN 3
1 21397U 91039A   13289.77691473  .00001317  00000-0  13642-3 0   847
2 21397 082.5223 328.3817 0019441 032.9477 327.2948 14.89160476210159
0 OKEAN 3
1 21397U 91039A   13290.78481754  .00001329  00000-0  13773-3 0   858
2 21397 082.5221 327.4292 0019351 029.8250 330.4067 14.89162485210305
0 OKEAN 3
1 21397U 91039A   13291.79271774  .00001421  00000-0  14742-3 0   860
2 21397 082.5221 326.4766 0019251 026.5664 333.6536 14.89163901210458
0 OKEAN 3
1 21397U 91039A   13292.80061695  .00001530  00000-0  15891-3 0   870
2 21397 082.5221 325.5241 0019161 023.2041 337.0037 14.89165883210601
0 OKEAN 3
1 21397U 91039A   13294.48044667  .00001472  00000-0  15279-3 0   882
2 21397 082.5222 323.9366 0019002 017.5722 342.6149 14.89171944210856
0 OKEAN 3
1 21397U 91039A   13295.48834120  .00001554  00000-0  16144-3 0   898
2 21397 082.5222 322.9841 0018914 014.2175 345.9571 14.89174672211004
